NORAD_CAT_ID,OBJECT_NAME,OBJECT_TYPE,EPOCH,MEAN_MOTION,ECCENTRICITY,INCLINATION,RA_OF_ASC_NODE,ARG_OF_PERICENTER,MEAN_ANOMALY,BSTAR,MEAN_MOTION_DOT,MEAN_MOTION_DDOT,TLE_LINE0,TLE_LINE1,TLE_LINE2,SEMIMAJOR_AXIS,PERIOD,APOGEE,PERIGEE,DECAYED
54196.0,STARLINK-5237,PAYLOAD,2024-05-10 16:27:37,15.08839837,0.0001421,53.2167,112.7851,99.6119,260.5034,5.3488e-05,5.63e-06,0.0,0 STARLINK-5237,1 54196U 22141AR  24131.68584712  .00000563  00000-0  53488-4 0  9993,2 54196  53.2167 112.7851 0001421  99.6119 260.5034 15.08839837 85385,6917.881,95.438,540.729,538.763,0.0
54196.0,STARLINK-5237,PAYLOAD,2024-05-11 05:10:40,15.08858853,0.0001951,53.2179,110.4074,118.228,241.8909,0.00017588,2.514e-05,0.0,0 STARLINK-5237,1 54196U 22141AR  24132.21575149  .00002514  00000-0  17588-3 0  9995,2 54196  53.2179 110.4074 0001951 118.2280 241.8909 15.08858853 85466,6917.823,95.436,541.037,538.338,0.0
54196.0,STARLINK-5237,PAYLOAD,2024-05-11 08:21:26,15.088777,0.0001505,53.2169,109.8107,108.1839,251.9317,0.0003649,5.53e-05,0.0,0 STARLINK-5237,1 54196U 22141AR  24132.34821866  .00005530  00000-0  36490-3 0  9993,2 54196  53.2169 109.8107 0001505 108.1839 251.9317 15.08877700 85486,6917.765,95.435,540.671,538.589,0.0
54196.0,STARLINK-5237,PAYLOAD,2024-05-12 05:01:31,15.08774245,0.0001353,53.2161,105.9474,82.2421,277.8725,-0.00097604,-0.0001576,0.0,0 STARLINK-5237,1 54196U 22141AR  24133.20939182 -.00015760  00000-0 -97604-3 0  9992,2 54196  53.2161 105.9474 0001353  82.2421 277.8725 15.08774245 85617,6918.081,95.442,540.882,539.01,0.0
54196.0,STARLINK-5237,PAYLOAD,2024-05-12 14:33:51,15.0877504,0.0001375,53.2167,104.1655,87.0579,273.0571,-0.00083228,-0.00013486,0.0,0 STARLINK-5237,1 54196U 22141AR  24133.60684826 -.00013486  00000-0 -83228-3 0  9998,2 54196  53.2167 104.1655 0001375  87.0579 273.0571 15.08775040 85448,6918.079,95.442,540.895,538.993,0.0
54196.0,STARLINK-5237,PAYLOAD,2024-05-12 22:30:47,15.0878457,1.68e-05,53.2168,102.6779,148.6412,211.4591,-0.00054465,-8.931e-05,0.0,0 STARLINK-5237,1 54196U 22141AR  24133.93804900 -.00008931  00000-0 -54465-3 0  9991,2 54196  53.2168 102.6779 0000168 148.6412 211.4591 15.08784570 85499,6918.05,95.441,540.031,539.799,0.0
54196.0,STARLINK-5237,PAYLOAD,2024-05-13 04:52:18,15.08836758,0.0001288,53.2161,101.4871,91.2936,268.8203,-2.1192e-05,-6.25e-06,0.0,0 STARLINK-5237,1 54196U 22141AR  24134.20298781 -.00000625  00000-0 -21192-4 0  9990,2 54196  53.2161 101.4871 0001288  91.2936 268.8203 15.08836758 85762,6917.89,95.438,540.646,538.864,0.0
54196.0,STARLINK-5237,PAYLOAD,2024-05-13 14:24:37,15.08839811,0.0001394,53.2169,99.7038,87.1279,272.9873,9.3118e-05,1.194e-05,0.0,0 STARLINK-5237,1 54196U 22141AR  24134.60042960  .00001194  00000-0  93118-4 0  9997,2 54196  53.2169  99.7038 0001394  87.1279 272.9873 15.08839811 85599,6917.881,95.438,540.71,538.782,0.0
54196.0,STARLINK-5237,PAYLOAD,2024-05-14 04:43:05,15.08810979,0.000132,53.2171,97.0281,88.5602,271.5542,0.00079581,0.0001239,0.0,0 STARLINK-5237,1 54196U 22141AR  24135.19659454  .00012390  00000-0  79581-3 0  9991,2 54196  53.2171  97.0281 0001320  88.5602 271.5542 15.08810979 85915,6917.969,95.439,540.747,538.921,0.0
54196.0,STARLINK-5237,PAYLOAD,2024-05-15 04:33:51,15.08872573,0.0001436,53.2168,92.5682,94.8996,265.216,0.00034924,5.279e-05,0.0,0 STARLINK-5237,1 54196U 22141AR  24136.19017678  .00005279  00000-0  34924-3 0  9998,2 54196  53.2168  92.5682 0001436  94.8996 265.2160 15.08872573 86061,6917.781,95.435,540.639,538.652,0.0
54196.0,STARLINK-5237,PAYLOAD,2024-05-16 04:24:37,15.08859443,0.0001338,53.2168,88.1074,96.0632,264.0512,1.243e-05,-9e-07,0.0,0 STARLINK-5237,1 54196U 22141AR  24137.18377156 -.00000090  00000-0  12430-4 0  9994,2 54196  53.2168  88.1074 0001338  96.0632 264.0512 15.08859443 86215,6917.821,95.436,540.612,538.76,0.0
54196.0,STARLINK-5237,PAYLOAD,2024-05-16 13:56:56,15.08850777,0.0001486,53.2174,86.3227,78.2816,281.8343,-8.6918e-05,-1.671e-05,0.0,0 STARLINK-5237,1 54196U 22141AR  24137.58121259 -.00001671  00000-0 -86918-4 0  9998,2 54196  53.2174  86.3227 0001486  78.2816 281.8343 15.08850777 86043,6917.847,95.437,540.74,538.684,0.0
54196.0,STARLINK-5237,PAYLOAD,2024-05-16 20:18:29,15.08849859,0.0001759,53.2179,85.134,68.4017,291.7162,-0.00017279,-3.038e-05,0.0,0 STARLINK-5237,1 54196U 22141AR  24137.84617256 -.00003038  00000-0 -17279-3 0  9996,2 54196  53.2179  85.1340 0001759  68.4017 291.7162 15.08849859 86316,6917.85,95.437,540.932,538.498,0.0
54196.0,STARLINK-5237,PAYLOAD,2024-05-17 02:40:01,15.08858356,0.0001627,53.2179,83.9434,92.1187,267.9991,-3.6983e-05,-8.77e-06,0.0,0 STARLINK-5237,1 54196U 22141AR  24138.11112454 -.00000877  00000-0 -36983-4 0  9999,2 54196  53.2179  83.9434 0001627  92.1187 267.9991 15.08858356 86353,6917.824,95.436,540.815,538.564,0.0
54196.0,STARLINK-5237,PAYLOAD,2024-05-17 13:47:43,15.08846051,0.0001591,53.2189,81.8608,91.0302,269.0872,-7.5685e-06,-4.09e-06,0.0,0 STARLINK-5237,1 54196U 22141AR  24138.57481090 -.00000409  00000-0 -75685-5 0  9998,2 54196  53.2189  81.8608 0001591  91.0302 269.0872 15.08846051 86193,6917.862,95.437,540.828,538.626,0.0
54196.0,STARLINK-5237,PAYLOAD,2024-05-18 02:30:49,15.08841708,0.0001653,53.2178,79.4797,104.3886,255.729,3.8942e-05,3.32e-06,0.0,0 STARLINK-5237,1 54196U 22141AR  24139.10473488  .00000332  00000-0  38942-4 0  9997,2 54196  53.2178  79.4797 0001653 104.3886 255.7290 15.08841708 86502,6917.875,95.437,540.884,538.597,0.0
54196.0,STARLINK-5237,PAYLOAD,2024-05-18 05:41:34,15.08852225,0.0001375,53.2164,78.8867,100.7376,259.3771,0.00021249,3.097e-05,0.0,0 STARLINK-5237,1 54196U 22141AR  24139.23721021  .00003097  00000-0  21249-3 0  9992,2 54196  53.2164  78.8867 0001375 100.7376 259.3771 15.08852225 86525,6917.843,95.437,540.659,538.757,0.0
54196.0,STARLINK-5237,PAYLOAD,2024-05-18 13:38:31,15.08842578,0.000153,53.2174,77.4003,95.9687,264.1479,0.00014962,2.094e-05,0.0,0 STARLINK-5237,1 54196U 22141AR  24139.56841580  .00002094  00000-0  14962-3 0  9991,2 54196  53.2174  77.4003 0001530  95.9687 264.1479 15.08842578 86345,6917.873,95.437,540.796,538.679,0.0
54196.0,STARLINK-5237,PAYLOAD,2024-05-18 20:00:03,15.08841746,0.0001482,53.2152,76.2129,80.4621,279.6539,0.00014895,2.083e-05,0.0,0 STARLINK-5237,1 54196U 22141AR  24139.83337638  .00002083  00000-0  14895-3 0  9998,2 54196  53.2152  76.2129 0001482  80.4621 279.6539 15.08841746 86614,6917.875,95.437,540.765,538.715,0.0
54196.0,STARLINK-5237,PAYLOAD,2024-05-19 02:21:35,15.088527,0.0001493,53.2175,75.0232,85.1718,274.9444,0.00028629,4.273e-05,0.0,0 STARLINK-5237,1 54196U 22141AR  24140.09833125  .00004273  00000-0  28629-3 0  9993,2 54196  53.2175  75.0232 0001493  85.1718 274.9444 15.08852700 86651,6917.842,95.437,540.739,538.674,0.0
54196.0,STARLINK-5237,PAYLOAD,2024-05-19 05:32:22,15.0885545,0.000167,53.2164,74.4265,92.7265,267.3918,0.00044579,6.817e-05,0.0,0 STARLINK-5237,1 54196U 22141AR  24140.23081031  .00006817  00000-0  44579-3 0  9998,2 54196  53.2164  74.4265 0001670  92.7265 267.3918 15.08855450 86440,6917.833,95.437,540.853,538.543,0.0
54196.0,STARLINK-5237,PAYLOAD,2024-05-19 19:50:51,15.08830249,0.0001572,53.2177,71.7492,121.3585,238.7561,-0.00010977,-2.034e-05,0.0,0 STARLINK-5237,1 54196U 22141AR  24140.82697938 -.00002034  00000-0 -10977-3 0  9996,2 54196  53.2177  71.7492 0001572 121.3585 238.7561 15.08830249 86761,6917.91,95.438,540.863,538.688,0.0
54196.0,STARLINK-5237,PAYLOAD,2024-05-20 05:23:09,15.08834958,0.0001482,53.2167,69.9654,116.1055,244.0089,0.00016891,2.401e-05,0.0,0 STARLINK-5237,1 54196U 22141AR  24141.22442024  .00002401  00000-0  16891-3 0  9992,2 54196  53.2167  69.9654 0001482 116.1055 244.0089 15.08834958 86590,6917.896,95.438,540.786,538.736,0.0
54196.0,STARLINK-5237,PAYLOAD,2024-05-21 00:27:48,15.0883383,0.0001461,53.2172,66.3963,100.3164,259.7993,0.00020617,2.994e-05,0.0,0 STARLINK-5237,1 54196U 22141AR  24142.01930861  .00002994  00000-0  20617-3 0  9999,2 54196  53.2172  66.3963 0001461 100.3164 259.7993 15.08833830 86947,6917.899,95.438,540.775,538.754,0.0
54196.0,STARLINK-5237,PAYLOAD,2024-05-21 05:13:57,15.08835448,0.0001424,53.2173,65.5034,103.8001,256.3149,0.00027292,4.058e-05,0.0,0 STARLINK-5237,1 54196U 22141AR  24142.21802908  .00004058  00000-0  27292-3 0  9990,2 54196  53.2173  65.5034 0001424 103.8001 256.3149 15.08835448 86746,6917.894,95.438,540.744,538.774,0.0
54196.0,STARLINK-5237,PAYLOAD,2024-05-21 22:43:12,15.08841137,0.000143,53.2173,62.2322,103.7749,256.3402,0.00032522,4.892e-05,0.0,0 STARLINK-5237,1 54196U 22141AR  24142.94667039  .00004892  00000-0  32522-3 0  9992,2 54196  53.2173  62.2322 0001430 103.7749 256.3402 15.08841137 86851,6917.877,95.437,540.731,538.753,0.0
54196.0,STARLINK-5237,PAYLOAD,2024-05-22 05:04:44,15.08847944,0.0001529,53.2183,61.0422,112.0779,248.0375,0.0004068,6.194e-05,0.0,0 STARLINK-5237,1 54196U 22141AR  24143.21162777  .00006194  00000-0  40680-3 0  9993,2 54196  53.2183  61.0422 0001529 112.0779 248.0375 15.08847944 87125,6917.856,95.437,540.779,538.663,0.0
54196.0,STARLINK-5237,PAYLOAD,2024-05-23 03:20:08,15.08849187,0.0001233,53.2177,56.882,94.7069,265.4064,0.00029872,4.471e-05,0.0,0 STARLINK-5237,1 54196U 22141AR  24144.13898630  .00004471  00000-0  29872-3 0  9995,2 54196  53.2177  56.8820 0001233  94.7069 265.4064 15.08849187 87266,6917.852,95.437,540.57,538.864,0.0
54196.0,STARLINK-5237,PAYLOAD,2024-05-24 03:10:55,15.08856922,0.0001468,53.2183,52.4201,86.8902,273.2258,0.00074951,0.00011666,0.0,0 STARLINK-5237,1 54196U 22141AR  24145.13258569  .00011666  00000-0  74951-3 0  9999,2 54196  53.2183  52.4201 0001468  86.8902 273.2258 15.08856922 87410,6917.829,95.436,540.709,538.678,0.0
54196.0,STARLINK-5237,PAYLOAD,2024-05-24 17:29:23,15.08836427,0.0001274,53.2177,49.7492,98.3139,261.7998,0.00028494,4.249e-05,0.0,0 STARLINK-5237,1 54196U 22141AR  24145.72874987  .00004249  00000-0  28494-3 0  9992,2 54196  53.2177  49.7492 0001274  98.3139 261.7998 15.08836427 87500,6917.891,95.438,540.638,538.875,0.0
